[{"OBJECT_NAME":"STARLINK-5683","OBJECT_ID":"2023-015D","EPOCH":"2026-03-09T23:29:53.706048","MEAN_MOTION":15.02533908,"ECCENTRICITY":9.584e-5,"INCLINATION":43.0043,"RA_OF_ASC_NODE":324.7523,"ARG_OF_PERICENTER":271.655,"MEAN_ANOMALY":88.4182,"EPHEMERIS_TYPE":0,"CLASSIFICATION_TYPE":"U","NORAD_CAT_ID":55452,"ELEMENT_SET_NO":999,"REV_AT_EPOCH":17079,"BSTAR":-4.2001786e-5,"MEAN_MOTION_DOT":-7.71e-6,"MEAN_MOTION_DDOT":0},{"OBJECT_NAME":"FENGYUN 1C DEB","OBJECT_ID":"1999-025EZQ","EPOCH":"2026-03-02T09:43:26.129856","MEAN_MOTION":14.27138362,"ECCENTRICITY":0.0348107,"INCLINATION":98.2222,"RA_OF_ASC_NODE":265.8497,"ARG_OF_PERICENTER":185.4453,"MEAN_ANOMALY":297.6866,"EPHEMERIS_TYPE":0,"CLASSIFICATION_TYPE":"U","NORAD_CAT_ID":46990,"ELEMENT_SET_NO":999,"REV_AT_EPOCH":9664,"BSTAR":0.0052877,"MEAN_MOTION_DOT":0.0002469,"MEAN_MOTION_DDOT":0}]
